{
  "norad_id": 53595,
  "name": "STARLINK-4684",
  "history": [
    {
      "epoch": "2026-04-13T06:14:47.124960Z",
      "apogee_km": 540.765285425723,
      "perigee_km": 538.7441541808648,
      "latitude_deg": -2.3587260543775028e-05,
      "longitude_deg": 153.7847278419492,
      "height_km": 540.3041565154849,
      "semi_major_axis_km": 6917.891719803294,
      "eccentricity": 0.00014608,
      "inclination_deg": 53.2159,
      "raan_deg": 88.9347,
      "arg_perigee_deg": 69.9718,
      "mean_anomaly_deg": 290.1431,
      "mean_motion_rev_day": 15.08836293
    },
    {
      "epoch": "2026-04-14T15:37:53.774112Z",
      "apogee_km": 542.4777760910365,
      "perigee_km": 536.973924407379,
      "latitude_deg": 7.311759258191182e-05,
      "longitude_deg": 5.3912157050728835,
      "height_km": 540.1092043276021,
      "semi_major_axis_km": 6917.862850249207,
      "eccentricity": 0.0003978,
      "inclination_deg": 53.2285,
      "raan_deg": 82.6899,
      "arg_perigee_deg": 79.3295,
      "mean_anomaly_deg": 280.8146,
      "mean_motion_rev_day": 15.08845738
    },
    {
      "epoch": "2026-04-15T15:28:40.611072Z",
      "apogee_km": 541.0559617405615,
      "perigee_km": 538.4603674748005,
      "latitude_deg": -3.246896340165655e-05,
      "longitude_deg": 2.2590505066383626,
      "height_km": 540.4918552395802,
      "semi_major_axis_km": 6917.89516460768,
      "eccentricity": 0.0001876,
      "inclination_deg": 53.2183,
      "raan_deg": 78.2323,
      "arg_perigee_deg": 82.8557,
      "mean_anomaly_deg": 277.2648,
      "mean_motion_rev_day": 15.08835166
    },
    {
      "epoch": "2026-04-16T15:19:27.477408Z",
      "apogee_km": 540.8328875787865,
      "perigee_km": 538.6828058604269,
      "latitude_deg": 1.188917021167679e-06,
      "longitude_deg": -0.8757338183130255,
      "height_km": 540.6011631222322,
      "semi_major_axis_km": 6917.894846719607,
      "eccentricity": 0.0001554,
      "inclination_deg": 53.2177,
      "raan_deg": 73.7721,
      "arg_perigee_deg": 87.2194,
      "mean_anomaly_deg": 272.8976,
      "mean_motion_rev_day": 15.0883527
    },
    {
      "epoch": "2026-04-17T21:31:46.998336Z",
      "apogee_km": 540.8137987547943,
      "perigee_km": 538.6767265662129,
      "latitude_deg": 3.6806885883293686e-06,
      "longitude_deg": -100.84766006622917,
      "height_km": 540.5945594448915,
      "semi_major_axis_km": 6917.882262660503,
      "eccentricity": 0.00015446,
      "inclination_deg": 53.2176,
      "raan_deg": 68.122,
      "arg_perigee_deg": 87.5233,
      "mean_anomaly_deg": 272.5936,
      "mean_motion_rev_day": 15.08839387
    },
    {
      "epoch": "2026-04-18T07:04:05.605248Z",
      "apogee_km": 540.8193762239889,
      "perigee_km": 538.6544967543032,
      "latitude_deg": -1.4126769789244662e-05,
      "longitude_deg": 113.89906565604805,
      "height_km": 540.5758102435906,
      "semi_major_axis_km": 6917.873936489145,
      "eccentricity": 0.00015647,
      "inclination_deg": 53.2175,
      "raan_deg": 66.338,
      "arg_perigee_deg": 87.0046,
      "mean_anomaly_deg": 273.1125,
      "mean_motion_rev_day": 15.08842111
    },
    {
      "epoch": "2026-04-19T21:13:21.453312Z",
      "apogee_km": 540.9104226099353,
      "perigee_km": 538.601229984517,
      "latitude_deg": -1.571168931703076e-05,
      "longitude_deg": -107.12051586100931,
      "height_km": 540.6005740023893,
      "semi_major_axis_km": 6917.892826297226,
      "eccentricity": 0.0001669,
      "inclination_deg": 53.2181,
      "raan_deg": 59.2014,
      "arg_perigee_deg": 87.4881,
      "mean_anomaly_deg": 272.6302,
      "mean_motion_rev_day": 15.08835931
    }
  ]
}